start=new Date('2023-06-25T00:00:00.000Z').valueOf();
sats=[{"REF_FRAME":"TEME","ECCENTRICITY":"0.00016350","MEAN_MOTION_DDOT":"0.0000000000000","TLE_LINE1":"1 55989U 23042D   23175.67789491  .00000590  00000-0  56015-4 0  9991","DECAY_DATE":null,"TIME_SYSTEM":"UTC","BSTAR":"0.00005601500000","INCLINATION":"43.0028","OBJECT_TYPE":"PAYLOAD","PERIAPSIS":"551.942","EPOCH":"2023-06-24T16:16:10.120224","MEAN_ELEMENT_THEORY":"SGP4","FILE":"3941718","RCS_SIZE":"LARGE","ARG_OF_PERICENTER":"270.1117","MEAN_MOTION_DOT":"0.00000590","CLASSIFICATION_TYPE":"U","MEAN_MOTION":"15.04489346","TLE_LINE2":"2 55989  43.0028  30.4404 0001635 270.1117  89.9539 15.04489346 14477","RA_OF_ASC_NODE":"30.4404","LAUNCH_DATE":"2023-03-24","REV_AT_EPOCH":"1447","OBJECT_ID":"2023-042D","MEAN_ANOMALY":"89.9539","EPHEMERIS_TYPE":"0","SITE":"AFETR","NORAD_CAT_ID":"55989","CENTER_NAME":"EARTH","GP_ID":"234527613","COUNTRY_CODE":"US","APOAPSIS":"554.209","ELEMENT_SET_NO":"999","PERIOD":"95.714","OBJECT_NAME":"STARLINK-5947","SEMIMAJOR_AXIS":"6931.211"},{"GP_ID":"234527103","SITE":"AFETR","CENTER_NAME":"EARTH","NORAD_CAT_ID":"55990","EPHEMERIS_TYPE":"0","MEAN_ANOMALY":"86.8168","OBJECT_ID":"2023-042E","REV_AT_EPOCH":"1447","LAUNCH_DATE":"2023-03-24","SEMIMAJOR_AXIS":"6931.214","OBJECT_NAME":"STARLINK-5946","PERIOD":"95.714","ELEMENT_SET_NO":"999","APOAPSIS":"554.043","COUNTRY_CODE":"US","INCLINATION":"43.0028","BSTAR":"0.00003123400000","DECAY_DATE":null,"TIME_SYSTEM":"UTC","TLE_LINE1":"1 55990U 23042E   23175.68607650  .00000237  00000-0  31234-4 0  9994","MEAN_MOTION_DDOT":"0.0000000000000","ECCENTRICITY":"0.00013910","REF_FRAME":"TEME","TLE_LINE2":"2 55990  43.0028  30.5042 0001391 273.2516  86.8168 15.04488289 14473","RA_OF_ASC_NODE":"30.5042","MEAN_MOTION":"15.04488289","CLASSIFICATION_TYPE":"U","MEAN_MOTION_DOT":"0.00000237","ARG_OF_PERICENTER":"273.2516","RCS_SIZE":"LARGE","EPOCH":"2023-06-24T16:27:57.009600","PERIAPSIS":"552.115","FILE":"3941718","MEAN_ELEMENT_THEORY":"SGP4","OBJECT_TYPE":"PAYLOAD"},{"MEAN_ANOMALY":"98.7202","OBJECT_ID":"2023-042F","REV_AT_EPOCH":"1447","LAUNCH_DATE":"2023-03-24","GP_ID":"234531752","SITE":"AFETR","CENTER_NAME":"EARTH","NORAD_CAT_ID":"55991","EPHEMERIS_TYPE":"0","ELEMENT_SET_NO":"999","PERIOD":"95.713","APOAPSIS":"554.097","COUNTRY_CODE":"US","SEMIMAJOR_AXIS":"6931.209","OBJECT_NAME":"STARLINK-5948","REF_FRAME":"TEME","BSTAR":"0.00011712000000","INCLINATION":"43.0011","DECAY_DATE":null,"TIME_SYSTEM":"UTC","MEAN_MOTION_DDOT":"0.0000000000000","TLE_LINE1":"1 55991U 23042F   23175.65948519  .00001460  00000-0  11712-3 0  9991","ECCENTRICITY":"0.00014760","ARG_OF_PERICENTER":"261.3473","RCS_SIZE":"LARGE","EPOCH":"2023-06-24T15:49:39.520416","PERIAPSIS":"552.051","FILE":"3941927","MEAN_ELEMENT_THEORY":"SGP4","OBJECT_TYPE":"PAYLOAD","RA_OF_ASC_NODE":"30.3017","TLE_LINE2":"2 55991  43.0011  30.3017 0001476 261.3473  98.7202 15.04489999 14470","MEAN_MOTION":"15.04489999","CLASSIFICATION_TYPE":"U","MEAN_MOTION_DOT":"0.00001460"},{"CENTER_NAME":"EARTH","NORAD_CAT_ID":"55992","SITE":"AFETR","EPHEMERIS_TYPE":"0","GP_ID":"234499162","OBJECT_ID":"2023-042G","REV_AT_EPOCH":"1427","LAUNCH_DATE":"2023-03-24","MEAN_ANOMALY":"90.8170","OBJECT_NAME":"STARLINK-5962","SEMIMAJOR_AXIS":"6931.216","APOAPSIS":"554.258","COUNTRY_CODE":"US","PERIOD":"95.714","ELEMENT_SET_NO":"999","TLE_LINE1":"1 55992U 23042G   23174.34372068  .00000193  00000-0  28146-4 0  9999","MEAN_MOTION_DDOT":"0.0000000000000","ECCENTRICITY":"0.00016990","INCLINATION":"43.0010","BSTAR":"0.00002814600000","TIME_SYSTEM":"UTC","DECAY_DATE":null,"REF_FRAME":"TEME","CLASSIFICATION_TYPE":"U","MEAN_MOTION_DOT":"0.00000193","RA_OF_ASC_NODE":"37.6315","TLE_LINE2":"2 55992  43.0010  37.6315 0001699 269.2478  90.8170 15.04487749 14276","MEAN_MOTION":"15.04487749","MEAN_ELEMENT_THEORY":"SGP4","FILE":"3940555","PERIAPSIS":"551.903","EPOCH":"2023-06-23T08:14:57.466752","OBJECT_TYPE":"PAYLOAD","ARG_OF_PERICENTER":"269.2478","RCS_SIZE":"LARGE"},{"MEAN_ANOMALY":"87.4399","LAUNCH_DATE":"2023-03-24","REV_AT_EPOCH":"1447","OBJECT_ID":"2023-042H","GP_ID":"234527617","EPHEMERIS_TYPE":"0","NORAD_CAT_ID":"55993","CENTER_NAME":"EARTH","SITE":"AFETR","ELEMENT_SET_NO":"999","PERIOD":"95.714","COUNTRY_CODE":"US","APOAPSIS":"554.374","SEMIMAJOR_AXIS":"6931.219","OBJECT_NAME":"STARLINK-5969","REF_FRAME":"TEME","TIME_SYSTEM":"UTC","DECAY_DATE":null,"BSTAR":"0.00008551700000","INCLINATION":"43.0016","ECCENTRICITY":"0.00018620","MEAN_MOTION_DDOT":"0.0000000000000","TLE_LINE1":"1 55993U 23042H   23175.67909465  .00001009  00000-0  85517-4 0  9996","RCS_SIZE":"LARGE","ARG_OF_PERICENTER":"272.6230","OBJECT_TYPE":"PAYLOAD","FILE":"3941719","MEAN_ELEMENT_THEORY":"SGP4","PERIAPSIS":"551.793","EPOCH":"2023-06-24T16:17:53.777760","MEAN_MOTION":"15.04486657","TLE_LINE2":"2 55993  43.0016  30.4499 0001862 272.6230  87.4399 15.04486657 14477","RA_OF_ASC_NODE":"30.4499","MEAN_MOTION_DOT":"0.00001009","CLASSIFICATION_TYPE":"U"},{"ECCENTRICITY":"0.00016020","TLE_LINE1":"1 55994U 23042J   23175.66452796  .00000329  00000-0  37680-4 0  9998","MEAN_MOTION_DDOT":"0.0000000000000","DECAY_DATE":null,"TIME_SYSTEM":"UTC","BSTAR":"0.00003768000000","INCLINATION":"43.0012","REF_FRAME":"TEME","MEAN_MOTION_DOT":"0.00000329","CLASSIFICATION_TYPE":"U","MEAN_MOTION":"15.04485031","RA_OF_ASC_NODE":"30.3419","TLE_LINE2":"2 55994  43.0012  30.3419 0001602 265.1162  94.9498 15.04485031 14476","OBJECT_TYPE":"PAYLOAD","EPOCH":"2023-06-24T15:56:55.215744","PERIAPSIS":"551.979","MEAN_ELEMENT_THEORY":"SGP4","FILE":"3941719","RCS_SIZE":"LARGE","ARG_OF_PERICENTER":"265.1162","EPHEMERIS_TYPE":"0","SITE":"AFETR","NORAD_CAT_ID":"55994","CENTER_NAME":"EARTH","GP_ID":"234527116","REV_AT_EPOCH":"1447","LAUNCH_DATE":"2023-03-24","OBJECT_ID":"2023-042J","MEAN_ANOMALY":"94.9498","OBJECT_NAME":"STARLINK-5956","SEMIMAJOR_AXIS":"6931.224","COUNTRY_CODE":"US","APOAPSIS":"554.199","PERIOD":"95.714","ELEMENT_SET_NO":"999"},{"REF_FRAME":"TEME","ECCENTRICITY":"0.00016240","TLE_LINE1":"1 55995U 23042K   23174.67802996  .00000897  00000-0  77645-4 0  9995","MEAN_MOTION_DDOT":"0.0000000000000","DECAY_DATE":null,"TIME_SYSTEM":"UTC","INCLINATION":"43.0021","BSTAR":"0.00007764500000","OBJECT_TYPE":"PAYLOAD","EPOCH":"2023-06-23T16:16:21.788544","PERIAPSIS":"551.964","MEAN_ELEMENT_THEORY":"SGP4","FILE":"3940852","RCS_SIZE":"LARGE","ARG_OF_PERICENTER":"271.3979","MEAN_MOTION_DOT":"0.00000897","CLASSIFICATION_TYPE":"U","MEAN_MOTION":"15.04484689","RA_OF_ASC_NODE":"35.8397","TLE_LINE2":"2 55995  43.0021  35.8397 0001624 271.3979  88.6678 15.04484689 14323","REV_AT_EPOCH":"1432","LAUNCH_DATE":"2023-03-24","OBJECT_ID":"2023-042K","MEAN_ANOMALY":"88.6678","EPHEMERIS_TYPE":"0","SITE":"AFETR","CENTER_NAME":"EARTH","NORAD_CAT_ID":"55995","GP_ID":"234506533","COUNTRY_CODE":"US","APOAPSIS":"554.216","ELEMENT_SET_NO":"999","PERIOD":"95.714","OBJECT_NAME":"STARLINK-5957","SEMIMAJOR_AXIS":"6931.225"},{"MEAN_MOTION_DOT":"0.00001004","CLASSIFICATION_TYPE":"U","MEAN_MOTION":"15.04488883","TLE_LINE2":"2 55996  43.0011  30.2531 0001880 267.5147  92.5481 15.04488883 14472","RA_OF_ASC_NODE":"30.2531","OBJECT_TYPE":"PAYLOAD","PERIAPSIS":"551.774","EPOCH":"2023-06-24T15:39:42.662304","FILE":"3941719","MEAN_ELEMENT_THEORY":"SGP4","RCS_SIZE":"LARGE","ARG_OF_PERICENTER":"267.5147","ECCENTRICITY":"0.00018800","TLE_LINE1":"1 55996U 23042L   23175.65257711  .00001004  00000-0  85125-4 0  9997","MEAN_MOTION_DDOT":"0.0000000000000","DECAY_DATE":null,"TIME_SYSTEM":"UTC","BSTAR":"0.00008512500000","INCLINATION":"43.0011","REF_FRAME":"TEME","OBJECT_NAME":"STARLINK-5903","SEMIMAJOR_AXIS":"6931.212","COUNTRY_CODE":"US","APOAPSIS":"554.380","PERIOD":"95.714","ELEMENT_SET_NO":"999","EPHEMERIS_TYPE":"0","SITE":"AFETR","CENTER_NAME":"EARTH","NORAD_CAT_ID":"55996","GP_ID":"234527117","LAUNCH_DATE":"2023-03-24","REV_AT_EPOCH":"1447","OBJECT_ID":"2023-042L","MEAN_ANOMALY":"92.5481"},{"GP_ID":"234527622","EPHEMERIS_TYPE":"0","NORAD_CAT_ID":"55997","CENTER_NAME":"EARTH","SITE":"AFETR","MEAN_ANOMALY":"95.5719","LAUNCH_DATE":"2023-03-24","REV_AT_EPOCH":"1447","OBJECT_ID":"2023-042M","SEMIMAJOR_AXIS":"6931.258","OBJECT_NAME":"STARLINK-5904","PERIOD":"95.715","ELEMENT_SET_NO":"999","COUNTRY_CODE":"US","APOAPSIS":"554.205","TIME_SYSTEM":"UTC","DECAY_DATE":null,"INCLINATION":"43.0023","BSTAR":"0.00013152000000","ECCENTRICITY":"0.00015620","MEAN_MOTION_DDOT":"0.0000000000000","TLE_LINE1":"1 55997U 23042M   23175.65781887  .00001664  00000-0  13152-3 0  9996","REF_FRAME":"TEME","MEAN_MOTION":"15.04474051","TLE_LINE2":"2 55997  43.0023  30.2916 0001562 264.4946  95.5719 15.04474051 14472","RA_OF_ASC_NODE":"30.2916","MEAN_MOTION_DOT":"0.00001664","CLASSIFICATION_TYPE":"U","RCS_SIZE":"LARGE","ARG_OF_PERICENTER":"264.4946","OBJECT_TYPE":"PAYLOAD","FILE":"3941719","MEAN_ELEMENT_THEORY":"SGP4","EPOCH":"2023-06-24T15:47:15.550368","PERIAPSIS":"552.040"},{"BSTAR":"0.00003605500000","INCLINATION":"43.0024","TIME_SYSTEM":"UTC","DECAY_DATE":null,"TLE_LINE1":"1 55998U 23042N   23175.64607293  .00000306  00000-0  36055-4 0  9994","MEAN_MOTION_DDOT":"0.0000000000000","ECCENTRICITY":"0.00011140","REF_FRAME":"TEME","TLE_LINE2":"2 55998  43.0024  30.2064 0001114 273.4473  86.6243 15.04484411 14470","RA_OF_ASC_NODE":"30.2064","MEAN_MOTION":"15.04484411","CLASSIFICATION_TYPE":"U","MEAN_MOTION_DOT":"0.00000306","ARG_OF_PERICENTER":"273.4473","RCS_SIZE":"LARGE","FILE":"3941720","MEAN_ELEMENT_THEORY":"SGP4","EPOCH":"2023-06-24T15:30:20.701152","PERIAPSIS":"552.319","OBJECT_TYPE":"PAYLOAD","GP_ID":"234527648","NORAD_CAT_ID":"55998","CENTER_NAME":"EARTH","SITE":"AFETR","EPHEMERIS_TYPE":"0","MEAN_ANOMALY":"86.6243","OBJECT_ID":"2023-042N","LAUNCH_DATE":"2023-03-24","REV_AT_EPOCH":"1447","SEMIMAJOR_AXIS":"6931.226","OBJECT_NAME":"STARLINK-5902","PERIOD":"95.714","ELEMENT_SET_NO":"999","APOAPSIS":"553.863","COUNTRY_CODE":"US"}];
